[{"OBJECT_NAME":"SL-8 R/B","OBJECT_ID":"1991-006B","EPOCH":"2026-03-17T12:45:27.044064","MEAN_MOTION":13.77495292,"ECCENTRICITY":0.00226029,"INCLINATION":82.946,"RA_OF_ASC_NODE":164.2162,"ARG_OF_PERICENTER":16.9308,"MEAN_ANOMALY":353.8385,"EPHEMERIS_TYPE":0,"CLASSIFICATION_TYPE":"U","NORAD_CAT_ID":21088,"ELEMENT_SET_NO":999,"REV_AT_EPOCH":76515,"BSTAR":6.1231104e-5,"MEAN_MOTION_DOT":7.6e-7,"MEAN_MOTION_DDOT":0},{"OBJECT_NAME":"OKEAN-3","OBJECT_ID":"1991-039A","EPOCH":"2026-03-17T15:47:57.779232","MEAN_MOTION":15.0486276,"ECCENTRICITY":0.00131494,"INCLINATION":82.5198,"RA_OF_ASC_NODE":329.1249,"ARG_OF_PERICENTER":307.4541,"MEAN_ANOMALY":52.5489,"EPHEMERIS_TYPE":0,"CLASSIFICATION_TYPE":"U","NORAD_CAT_ID":21397,"ELEMENT_SET_NO":999,"REV_AT_EPOCH":86623,"BSTAR":0.00015179104,"MEAN_MOTION_DOT":2.176e-5,"MEAN_MOTION_DDOT":0},{"OBJECT_NAME":"COSMOS 2151","OBJECT_ID":"1991-042A","EPOCH":"2026-03-17T19:42:23.551488","MEAN_MOTION":15.00138451,"ECCENTRICITY":0.0013477,"INCLINATION":82.4931,"RA_OF_ASC_NODE":75.8297,"ARG_OF_PERICENTER":38.7491,"MEAN_ANOMALY":321.4697,"EPHEMERIS_TYPE":0,"CLASSIFICATION_TYPE":"U","NORAD_CAT_ID":21422,"ELEMENT_SET_NO":999,"REV_AT_EPOCH":86441,"BSTAR":0.00015083,"MEAN_MOTION_DOT":1.912e-5,"MEAN_MOTION_DDOT":0},{"OBJECT_NAME":"SL-14 R/B","OBJECT_ID":"1991-042B","EPOCH":"2026-03-17T20:39:34.523136","MEAN_MOTION":14.81838107,"ECCENTRICITY":0.0016288,"INCLINATION":82.4938,"RA_OF_ASC_NODE":212.5205,"ARG_OF_PERICENTER":210.0281,"MEAN_ANOMALY":150.0001,"EPHEMERIS_TYPE":0,"CLASSIFICATION_TYPE":"U","NORAD_CAT_ID":21423,"ELEMENT_SET_NO":999,"REV_AT_EPOCH":85428,"BSTAR":5.2322e-5,"MEAN_MOTION_DOT":4.37e-6,"MEAN_MOTION_DDOT":0},{"OBJECT_NAME":"ERS-1","OBJECT_ID":"1991-050A","EPOCH":"2026-03-17T18:15:15.439104","MEAN_MOTION":14.39455446,"ECCENTRICITY":0.0032069,"INCLINATION":98.7875,"RA_OF_ASC_NODE":95.198,"ARG_OF_PERICENTER":176.4037,"MEAN_ANOMALY":183.7387,"EPHEMERIS_TYPE":0,"CLASSIFICATION_TYPE":"U","NORAD_CAT_ID":21574,"ELEMENT_SET_NO":999,"REV_AT_EPOCH":81689,"BSTAR":0.00010056,"MEAN_MOTION_DOT":2.69e-6,"MEAN_MOTION_DDOT":0},{"OBJECT_NAME":"ARIANE 40 R/B","OBJECT_ID":"1991-050F","EPOCH":"2026-03-17T20:40:50.079072","MEAN_MOTION":14.42899544,"ECCENTRICITY":0.0004105,"INCLINATION":98.1994,"RA_OF_ASC_NODE":128.7908,"ARG_OF_PERICENTER":63.4225,"MEAN_ANOMALY":296.7386,"EPHEMERIS_TYPE":0,"CLASSIFICATION_TYPE":"U","NORAD_CAT_ID":21610,"ELEMENT_SET_NO":999,"REV_AT_EPOCH":82017,"BSTAR":9.1187e-5,"MEAN_MOTION_DOT":2.63e-6,"MEAN_MOTION_DDOT":0},{"OBJECT_NAME":"INTERCOSMOS 25","OBJECT_ID":"1991-086A","EPOCH":"2026-03-17T13:58:57.615456","MEAN_MOTION":12.12028288,"ECCENTRICITY":0.14868314,"INCLINATION":82.604,"RA_OF_ASC_NODE":305.2378,"ARG_OF_PERICENTER":99.9293,"MEAN_ANOMALY":277.2314,"EPHEMERIS_TYPE":0,"CLASSIFICATION_TYPE":"U","NORAD_CAT_ID":21819,"ELEMENT_SET_NO":999,"REV_AT_EPOCH":49764,"BSTAR":0.00030850165,"MEAN_MOTION_DOT":1.611e-5,"MEAN_MOTION_DDOT":0},{"OBJECT_NAME":"SL-8 R/B","OBJECT_ID":"1992-008B","EPOCH":"2026-03-17T21:03:05.662368","MEAN_MOTION":13.75969652,"ECCENTRICITY":0.0035828,"INCLINATION":82.9222,"RA_OF_ASC_NODE":261.6859,"ARG_OF_PERICENTER":111.1542,"MEAN_ANOMALY":4.6037,"EPHEMERIS_TYPE":0,"CLASSIFICATION_TYPE":"U","NORAD_CAT_ID":21876,"ELEMENT_SET_NO":999,"REV_AT_EPOCH":71054,"BSTAR":-1.3305e-5,"MEAN_MOTION_DOT":3.0e-8,"MEAN_MOTION_DDOT":0},{"OBJECT_NAME":"SL-8 R/B","OBJECT_ID":"1992-020B","EPOCH":"2026-03-17T15:20:59.971200","MEAN_MOTION":13.75550091,"ECCENTRICITY":0.00275287,"INCLINATION":82.9324,"RA_OF_ASC_NODE":147.8596,"ARG_OF_PERICENTER":275.5574,"MEAN_ANOMALY":238.5416,"EPHEMERIS_TYPE":0,"CLASSIFICATION_TYPE":"U","NORAD_CAT_ID":21938,"ELEMENT_SET_NO":999,"REV_AT_EPOCH":70222,"BSTAR":4.183002e-5,"MEAN_MOTION_DOT":5.5e-7,"MEAN_MOTION_DDOT":0},{"OBJECT_NAME":"USA 81","OBJECT_ID":"1992-023A","EPOCH":"2026-03-17T09:54:43.678656","MEAN_MOTION":14.32370485,"ECCENTRICITY":0.00022574,"INCLINATION":85.007,"RA_OF_ASC_NODE":126.9851,"ARG_OF_PERICENTER":71.7173,"MEAN_ANOMALY":288.4266,"EPHEMERIS_TYPE":0,"CLASSIFICATION_TYPE":"U","NORAD_CAT_ID":21949,"ELEMENT_SET_NO":999,"REV_AT_EPOCH":9589,"BSTAR":5.6761003e-5,"MEAN_MOTION_DOT":1.73e-6,"MEAN_MOTION_DDOT":0},{"OBJECT_NAME":"COSMOS 2219","OBJECT_ID":"1992-076A","EPOCH":"2026-03-17T20:50:02.386752","MEAN_MOTION":14.1409355,"ECCENTRICITY":0.0018502,"INCLINATION":71.0641,"RA_OF_ASC_NODE":0.973,"ARG_OF_PERICENTER":195.634,"MEAN_ANOMALY":164.4214,"EPHEMERIS_TYPE":0,"CLASSIFICATION_TYPE":"U","NORAD_CAT_ID":22219,"ELEMENT_SET_NO":999,"REV_AT_EPOCH":71953,"BSTAR":-2.815e-5,"MEAN_MOTION_DOT":-1.01e-6,"MEAN_MOTION_DDOT":0},{"OBJECT_NAME":"SL-16 R/B","OBJECT_ID":"1992-076B","EPOCH":"2026-03-17T09:25:47.377344","MEAN_MOTION":14.16859685,"ECCENTRICITY":0.00105786,"INCLINATION":71.0006,"RA_OF_ASC_NODE":172.1483,"ARG_OF_PERICENTER":82.1541,"MEAN_ANOMALY":343.8892,"EPHEMERIS_TYPE":0,"CLASSIFICATION_TYPE":"U","NORAD_CAT_ID":22220,"ELEMENT_SET_NO":999,"REV_AT_EPOCH":72292,"BSTAR":9.9466935e-5,"MEAN_MOTION_DOT":1.52e-6,"MEAN_MOTION_DDOT":0},{"OBJECT_NAME":"COSMOS 2221","OBJECT_ID":"1992-080A","EPOCH":"2026-03-17T19:06:46.196064","MEAN_MOTION":14.96233078,"ECCENTRICITY":0.001473,"INCLINATION":82.5002,"RA_OF_ASC_NODE":271.3136,"ARG_OF_PERICENTER":160.2663,"MEAN_ANOMALY":199.9132,"EPHEMERIS_TYPE":0,"CLASSIFICATION_TYPE":"U","NORAD_CAT_ID":22236,"ELEMENT_SET_NO":999,"REV_AT_EPOCH":78200,"BSTAR":0.00015646,"MEAN_MOTION_DOT":1.794e-5,"MEAN_MOTION_DDOT":0},{"OBJECT_NAME":"SL-16 R/B","OBJECT_ID":"1992-093B","EPOCH":"2026-03-17T20:47:51.943488","MEAN_MOTION":14.15447604,"ECCENTRICITY":0.0006288,"INCLINATION":71.0239,"RA_OF_ASC_NODE":347.1022,"ARG_OF_PERICENTER":285.3964,"MEAN_ANOMALY":74.6464,"EPHEMERIS_TYPE":0,"CLASSIFICATION_TYPE":"U","NORAD_CAT_ID":22285,"ELEMENT_SET_NO":999,"REV_AT_EPOCH":71431,"BSTAR":9.123e-5,"MEAN_MOTION_DOT":1.31e-6,"MEAN_MOTION_DDOT":0},{"OBJECT_NAME":"COSMOS 2228","OBJECT_ID":"1992-094A","EPOCH":"2026-03-17T20:58:47.634816","MEAN_MOTION":14.97231939,"ECCENTRICITY":0.0016603,"INCLINATION":82.5168,"RA_OF_ASC_NODE":229.4732,"ARG_OF_PERICENTER":274.8848,"MEAN_ANOMALY":85.0479,"EPHEMERIS_TYPE":0,"CLASSIFICATION_TYPE":"U","NORAD_CAT_ID":22286,"ELEMENT_SET_NO":999,"REV_AT_EPOCH":77728,"BSTAR":0.00018621,"MEAN_MOTION_DOT":2.186e-5,"MEAN_MOTION_DDOT":0},{"OBJECT_NAME":"SL-16 R/B","OBJECT_ID":"1993-016B","EPOCH":"2026-03-17T15:00:06.711552","MEAN_MOTION":14.15308302,"ECCENTRICITY":0.00122607,"INCLINATION":71.0083,"RA_OF_ASC_NODE":198.5152,"ARG_OF_PERICENTER":303.7758,"MEAN_ANOMALY":56.2196,"EPHEMERIS_TYPE":0,"CLASSIFICATION_TYPE":"U","NORAD_CAT_ID":22566,"ELEMENT_SET_NO":999,"REV_AT_EPOCH":70329,"BSTAR":-9.9404918e-5,"MEAN_MOTION_DOT":-2.41e-6,"MEAN_MOTION_DDOT":0},{"OBJECT_NAME":"COSMOS 2242","OBJECT_ID":"1993-024A","EPOCH":"2026-03-17T20:38:12.038784","MEAN_MOTION":14.96582696,"ECCENTRICITY":0.0014922,"INCLINATION":82.5152,"RA_OF_ASC_NODE":258.8994,"ARG_OF_PERICENTER":278.9507,"MEAN_ANOMALY":81.0026,"EPHEMERIS_TYPE":0,"CLASSIFICATION_TYPE":"U","NORAD_CAT_ID":22626,"ELEMENT_SET_NO":999,"REV_AT_EPOCH":78161,"BSTAR":0.0001614,"MEAN_MOTION_DOT":1.866e-5,"MEAN_MOTION_DDOT":0}]
